HYPSO-2                 
1 60531U 24149BR  26130.21068384  .00001625  00000+0  14043-3 0  9997
2 60531  97.6811 207.0277 0002003 115.6711 244.4718 14.98599925 94364
LEMU NGE                
1 60532U 24149BS  26130.16491000  .00001776  00000+0  16845-3 0  9996
2 60532  97.6847 205.8957 0002518 116.5696 243.5783 14.94795959 94271
LEMUR-2-STELLA          
1 60533U 24149BT  26130.21119111  .00006434  00000+0  38933-3 0  9991
2 60533  97.6730 212.5278 0001999 122.9848 237.1574 15.10979183 94769
SATELIOT_2              
1 60534U 24149BU  26130.17576469  .00001079  00000+0  10068-3 0  9999
2 60534  97.6835 205.8276 0001399 107.1791 252.9584 14.96222217 94280
NIGHTJAR                
1 60535U 24149BV  26130.20742191  .00001798  00000+0  15408-3 0  9992
2 60535  97.6832 207.4472 0001000 162.3527 197.7730 14.98793385137180
LEMUR-2-MARHISYAM       
1 60536U 24149BW  26130.17822463  .00007125  00000+0  43680-3 0  9993
2 60536  97.6870 212.9033 0001346 206.4920 153.6241 15.10466618 94740
SATELIOT_4              
1 60537U 24149BX  26130.19443964  .00001053  00000+0  97681-4 0  9996
2 60537  97.6738 205.3995 0002813 135.7274 224.4173 14.96527196 94296
PICO-02A021             
1 60538U 24149BY  26130.02019486  .00003623  00000+0  27444-3 0  9991
2 60538  97.6765 209.1924 0006386 136.9512 223.2213 15.02893580 94000
ICEYE-X43               
1 60539U 24149BZ  26130.19835552  .00001680  00000+0  14082-3 0  9995
2 60539  97.6770 207.6878 0004167 209.1015 150.9977 14.99736977 94424
HAWK-10A                
1 60540U 24149CA  26130.18948008  .00000510  00000+0  50085-4 0  9992
2 60540  97.6898 206.7557 0003265 175.0404 185.0850 14.96394740 94303
UMBRA-09                
1 60541U 24149CB  26130.21608367  .00007996  00000+0  40931-3 0  9991
2 60541  97.6960 216.8111 0001465 137.8680 222.2665 15.16892376 94965
QPS-SAR-8 (AMATERU-IV)  
1 60542U 24149CC  26130.20255186  .00002862  00000+0  21302-3 0  9996
2 60542  97.6667 209.6840 0002140 202.8524 157.2607 15.03750703 94562
ARCTIC WEATHER SATELLITE
1 60543U 24149CD  26130.20567964  .00000586  00000+0  66627-4 0  9998
2 60543  97.6808 201.7538 0001357 189.9349 170.1842 14.89792133 93645
CAPELLA-15 (ACADIA-5)   
1 60544U 24149CE  26130.17334314  .00000616  00000+0  65510-4 0  9990
2 60544  97.6777 204.0213 0004017 185.4995 174.6180 14.92416940 94188
HAWK-10B                
1 60545U 24149CF  26130.18933382  .00000521  00000+0  50985-4 0  9997
2 60545  97.6818 206.1491 0004570 206.4136 153.6853 14.96395105 94302
ICEYE-X39               
1 60546U 24149CG  26130.18101455  .00001934  00000+0  16151-3 0  9991
2 60546  97.6826 207.7194 0002072 179.3681 180.7545 14.99698033 94428
UMBRA-10                
1 60547U 24149CH  26130.21563597  .00008587  00000+0  43922-3 0  9992
2 60547  97.6963 216.8352 0002323 113.3165 246.8312 15.16893681 94974
ICEYE-X33               
1 60548U 24149CJ  26130.16829897  .00003297  00000+0  26365-3 0  9990
2 60548  97.7158 209.5452 0001022 345.5672  14.5522 15.00900181 94508
ICEYE-X40               
1 60549U 24149CK  26130.22499882  .00001787  00000+0  15700-3 0  9998
2 60549  97.6809 207.3327 0004667 181.8001 178.3205 14.97818012 94393
SATELIOT_1              
1 60550U 24149CL  26130.15213209  .00002446  00000+0  21247-3 0  9995
2 60550  97.6742 206.6858 0006584 187.0302 173.0829 14.97909840 94376
BRO-14                  
1 60551U 24149CM  26130.20725784  .00000516  00000+0  50967-4 0  9996
2 60551  97.6873 206.6675 0005933 214.0116 146.0726 14.96101844 94317
SATELIOT_3              
1 60552U 24149CN  26130.19435731  .00000910  00000+0  82215-4 0  9994
2 60552  97.6824 207.4848 0004461 198.8096 161.2962 14.97897129 94394
BRO-15                  
1 60553U 24149CP  26130.18873718  .00000036  00000+0  82519-5 0  9992
2 60553  97.6806 206.2871 0007326 205.9803 154.1051 14.96063991 94321
UM5-RIBAT               
1 60554U 24149CQ  26130.20606405  .00001787  00000+0  14518-3 0  9999
2 60554  97.6658 208.5185 0003002 121.7106 238.4411 15.00861135 94494
UM5-EOSAT               
1 60555U 24149CR  26130.18305787  .00001794  00000+0  14423-3 0  9999
2 60555  97.6651 209.3960 0006442 228.4030 131.6642 15.01265207 94512
KANYINI                 
1 60556U 24149CS  26130.21648507  .00022899  00000+0  40884-3 0  9993
2 60556  97.3724 216.1557 0001861  69.6149 290.5302 15.50059439 96629
TROOP-F2                
1 60557U 24149CT  26129.80544425  .01370010  13919-2  11534-2 0  9998
2 60557  97.3148 225.2136 0011867 271.2251  88.7675 16.13896244 97226
FLOCK 4BE-35            
1 60558U 24149CU  26130.21349660  .00095072  00000+0  12681-2 0  9999
2 60558  97.3701 214.9263 0001173 164.8664 195.2627 15.57782087 96532
FLOCK 4BE-5             
1 60559U 24149CV  26130.20315788  .00010207  00000+0  26475-3 0  9997
2 60559  97.3836 213.8718 0004519  87.1648 273.0114 15.39188153 96430
FLOCK 4BE-3             
1 60561U 24149CX  26130.22356488  .00010439  00000+0  26000-3 0  9995
2 60561  97.3692 213.8077 0005262  78.3496 281.8341 15.40417264 96495
