OBJECT_NAME,OBJECT_ID,EPOCH,MEAN_MOTION,ECCENTRICITY,INCLINATION,RA_OF_ASC_NODE,ARG_OF_PERICENTER,MEAN_ANOMALY,EPHEMERIS_TYPE,CLASSIFICATION_TYPE,NORAD_CAT_ID,ELEMENT_SET_NO,REV_AT_EPOCH,BSTAR,MEAN_MOTION_DOT,MEAN_MOTION_DDOT
HYPSO-2,2024-149BR,2026-05-10T05:03:23.083776,14.98599925,.0002003,97.6811,207.0277,115.6711,244.4718,0,U,60531,999,9436,.14043E-3,.1625E-4,0
LEMU NGE,2024-149BS,2026-05-10T03:57:28.224000,14.94795959,.0002518,97.6847,205.8957,116.5696,243.5783,0,U,60532,999,9427,.16845E-3,.1776E-4,0
LEMUR-2-STELLA,2024-149BT,2026-05-10T05:04:06.911904,15.10979183,.0001999,97.6730,212.5278,122.9848,237.1574,0,U,60533,999,9476,.38933E-3,.6434E-4,0
SATELIOT_2,2024-149BU,2026-05-10T04:13:06.069216,14.96222217,.0001399,97.6835,205.8276,107.1791,252.9584,0,U,60534,999,9428,.10068E-3,.1079E-4,0
NIGHTJAR,2024-149BV,2026-05-10T04:58:41.253024,14.98793385,.0001,97.6832,207.4472,162.3527,197.7730,0,U,60535,999,13718,.15408E-3,.1798E-4,0
LEMUR-2-MARHISYAM,2024-149BW,2026-05-10T04:16:38.608032,15.10466618,.0001346,97.6870,212.9033,206.4920,153.6241,0,U,60536,999,9474,.4368E-3,.7125E-4,0
SATELIOT_4,2024-149BX,2026-05-10T04:39:59.584896,14.96527196,.0002813,97.6738,205.3995,135.7274,224.4173,0,U,60537,999,9429,.97681E-4,.1053E-4,0
PICO-02A021,2024-149BY,2026-05-10T00:29:04.835904,15.02893580,.0006386,97.6765,209.1924,136.9512,223.2213,0,U,60538,999,9400,.27444E-3,.3623E-4,0
ICEYE-X43,2024-149BZ,2026-05-10T04:45:37.916928,14.99736977,.0004167,97.6770,207.6878,209.1015,150.9977,0,U,60539,999,9442,.14082E-3,.168E-4,0
HAWK-10A,2024-149CA,2026-05-10T04:32:51.078912,14.96394740,.0003265,97.6898,206.7557,175.0404,185.0850,0,U,60540,999,9430,.50085E-4,.51E-5,0
UMBRA-09,2024-149CB,2026-05-10T05:11:09.629088,15.16892376,.0001465,97.6960,216.8111,137.8680,222.2665,0,U,60541,999,9496,.40931E-3,.7996E-4,0
QPS-SAR-8 (AMATERU-IV),2024-149CC,2026-05-10T04:51:40.480704,15.03750703,.000214,97.6667,209.6840,202.8524,157.2607,0,U,60542,999,9456,.21302E-3,.2862E-4,0
ARCTIC WEATHER SATELLITE,2024-149CD,2026-05-10T04:56:10.720896,14.89792133,.0001357,97.6808,201.7538,189.9349,170.1842,0,U,60543,999,9364,.66627E-4,.586E-5,0
CAPELLA-15 (ACADIA-5),2024-149CE,2026-05-10T04:09:36.847296,14.92416940,.0004017,97.6777,204.0213,185.4995,174.6180,0,U,60544,999,9418,.6551E-4,.616E-5,0
HAWK-10B,2024-149CF,2026-05-10T04:32:38.442048,14.96395105,.000457,97.6818,206.1491,206.4136,153.6853,0,U,60545,999,9430,.50985E-4,.521E-5,0
ICEYE-X39,2024-149CG,2026-05-10T04:20:39.657120,14.99698033,.0002072,97.6826,207.7194,179.3681,180.7545,0,U,60546,999,9442,.16151E-3,.1934E-4,0
UMBRA-10,2024-149CH,2026-05-10T05:10:30.947808,15.16893681,.0002323,97.6963,216.8352,113.3165,246.8312,0,U,60547,999,9497,.43922E-3,.8587E-4,0
ICEYE-X33,2024-149CJ,2026-05-10T04:02:21.031008,15.00900181,.0001022,97.7158,209.5452,345.5672,14.5522,0,U,60548,999,9450,.26365E-3,.3297E-4,0
ICEYE-X40,2024-149CK,2026-05-10T05:23:59.898048,14.97818012,.0004667,97.6809,207.3327,181.8001,178.3205,0,U,60549,999,9439,.157E-3,.1787E-4,0
SATELIOT_1,2024-149CL,2026-05-10T03:39:04.212576,14.97909840,.0006584,97.6742,206.6858,187.0302,173.0829,0,U,60550,999,9437,.21247E-3,.2446E-4,0
BRO-14,2024-149CM,2026-05-10T04:58:27.077376,14.96101844,.0005933,97.6873,206.6675,214.0116,146.0726,0,U,60551,999,9431,.50967E-4,.516E-5,0
SATELIOT_3,2024-149CN,2026-05-10T04:39:52.471584,14.97897129,.0004461,97.6824,207.4848,198.8096,161.2962,0,U,60552,999,9439,.82215E-4,.91E-5,0
BRO-15,2024-149CP,2026-05-10T04:31:46.892352,14.96063991,.0007326,97.6806,206.2871,205.9803,154.1051,0,U,60553,999,9432,.82519E-5,.36E-6,0
UM5-RIBAT,2024-149CQ,2026-05-10T04:56:43.933920,15.00861135,.0003002,97.6658,208.5185,121.7106,238.4411,0,U,60554,999,9449,.14518E-3,.1787E-4,0
UM5-EOSAT,2024-149CR,2026-05-10T04:23:36.199968,15.01265207,.0006442,97.6651,209.3960,228.4030,131.6642,0,U,60555,999,9451,.14423E-3,.1794E-4,0
KANYINI,2024-149CS,2026-05-10T05:11:44.310048,15.50059439,.0001861,97.3724,216.1557,69.6149,290.5302,0,U,60556,999,9662,.40884E-3,.22899E-3,0
TROOP-F2,2024-149CT,2026-05-09T19:19:50.383200,16.13896244,.00118676,97.3148,225.2136,271.2251,88.7675,0,U,60557,999,9722,.11534333E-2,.137001E-1,.13918902E-2
FLOCK 4BE-35,2024-149CU,2026-05-10T05:07:26.106240,15.57782087,.0001173,97.3701,214.9263,164.8664,195.2627,0,U,60558,999,9653,.12681E-2,.95072E-3,0
FLOCK 4BE-5,2024-149CV,2026-05-10T04:52:32.840832,15.39188153,.0004519,97.3836,213.8718,87.1648,273.0114,0,U,60559,999,9643,.26475E-3,.10207E-3,0
FLOCK 4BE-3,2024-149CX,2026-05-10T05:21:56.005632,15.40417264,.0005262,97.3692,213.8077,78.3496,281.8341,0,U,60561,999,9649,.26E-3,.10439E-3,0
